ONEWEB-0033             
1 45142U 20008M   24136.85227609 -.00000396  00000+0 -11698-2 0  9997
2 45142  87.8957 187.8463 0002328  96.2855 263.8538 13.10370966208370
ONEWEB-0035             
1 45143U 20008N   24136.88382266  .00000203  00000+0  54623-3 0  9993
2 45143  87.8970 187.8194 0002209  97.4821 262.6557 13.10378470208108
ONEWEB-0036             
1 45144U 20008P   24136.87385667 -.00000307  00000+0 -91433-3 0  9998
2 45144  87.8965 187.7796 0001883  95.2507 264.8836 13.10375967208533
ONEWEB-0038             
1 45145U 20008Q   24136.64651653 -.00000050  00000+0 -17777-3 0  9999
2 45145  87.8979 172.7597 0002033 118.1472 241.9861 13.11334308210381
ONEWEB-0040             
1 45147U 20008S   24136.84895827 -.00000285  00000+0 -85242-3 0  9998
2 45147  87.8966 187.8015 0002026  99.4668 260.6688 13.10371507208025
ONEWEB-0043             
1 45149U 20008U   24136.85062034 -.00000348  00000+0 -10344-2 0  9997
2 45149  87.8960 187.8097 0001541 100.0152 260.1149 13.10372000208340
ONEWEB-0044             
1 45150U 20008V   24136.87883880 -.00000049  00000+0 -17564-3 0  9991
2 45150  87.8967 187.7996 0001727  96.4459 263.6865 13.10376470208641
